STARLINK-32579          
1 61922U 24207L   26067.99712607  .00034596  00000+0  12595-2 0  9997
2 61922  42.9981 289.3350 0001209 287.7263  72.3457 15.27614477 74577
LIZZIESAT-2 (LS-2)      
1 62383U 24247G   26068.49140277  .00009388  00000+0  34517-3 0  9997
2 62383  44.9909 117.0823 0004092 327.5136  32.5495 15.28222796 67716
